[{"OBJECT_NAME":"STARLINK-4443","OBJECT_ID":"2022-099AV","EPOCH":"2026-03-09T21:15:02.117088","MEAN_MOTION":15.0564675,"ECCENTRICITY":4.33e-5,"INCLINATION":97.6042,"RA_OF_ASC_NODE":191.4361,"ARG_OF_PERICENTER":255.1395,"MEAN_ANOMALY":104.9784,"EPHEMERIS_TYPE":0,"CLASSIFICATION_TYPE":"U","NORAD_CAT_ID":53508,"ELEMENT_SET_NO":999,"REV_AT_EPOCH":19608,"BSTAR":6.6264518e-5,"MEAN_MOTION_DOT":8.95e-6,"MEAN_MOTION_DDOT":0},{"OBJECT_NAME":"OBJECT Z","OBJECT_ID":"2017-042Z","EPOCH":"2026-03-09T21:17:53.130336","MEAN_MOTION":15.06776019,"ECCENTRICITY":0.00062541,"INCLINATION":97.3821,"RA_OF_ASC_NODE":235.9429,"ARG_OF_PERICENTER":50.1524,"MEAN_ANOMALY":310.0253,"EPHEMERIS_TYPE":0,"CLASSIFICATION_TYPE":"U","NORAD_CAT_ID":42848,"ELEMENT_SET_NO":999,"REV_AT_EPOCH":47228,"BSTAR":0.00039314781,"MEAN_MOTION_DOT":5.795e-5,"MEAN_MOTION_DDOT":0}]
